DMSP 5D-3 F16 (USA 172) 
1 28054U 03048A   26015.16490498  .00000075  00000+0  62799-4 0  9997
2 28054  99.0027  37.8819 0006708 213.8640 233.3511 14.14437851147850
METEOSAT-9 (MSG-2)      
1 28912U 05049B   26013.74154184  .00000134  00000+0  00000+0 0  9992
2 28912   9.0112  55.6738 0002479 190.0702 180.1772  1.00278671  5454
DMSP 5D-3 F17 (USA 191) 
1 29522U 06050A   26015.14794755  .00000098  00000+0  72977-4 0  9999
2 29522  98.7395  24.8421 0010881 129.9213 230.2919 14.14935916990770
FENGYUN 3A              
1 32958U 08026A   26014.81399964  .00000048  00000+0  43117-4 0  9996
2 32958  98.6734 318.6512 0008130 203.6634 156.4169 14.19526563913645
GOES 14                 
1 35491U 09033A   26015.14579506  .00000102  00000+0  00000+0 0  9999
2 35491   1.2900  85.0290 0000955 254.6123  56.8443  1.00102780  5051
DMSP 5D-3 F18 (USA 210) 
1 35951U 09057A   26015.17733215  .00000226  00000+0  14052-3 0  9991
2 35951  98.8874 356.4183 0010659 331.1091  28.9491 14.14794466837959
EWS-G2 (GOES 15)        
1 36411U 10008A   26015.07802745  .00000055  00000+0  00000+0 0  9999
2 36411   0.8943  85.9523 0005133 189.6099 288.4370  1.00273982 58105
COMS 1                  
1 36744U 10032A   26015.02197525 -.00000330  00000+0  00000+0 0  9990
2 36744   4.4186  77.5905 0000840 241.0661 291.9015  1.00271003 49558
FENGYUN 3B              
1 37214U 10059A   26015.20086050  .00000173  00000+0  11326-3 0  9993
2 37214  98.9871  60.4057 0021123 259.8556 186.4264 14.14800397785796
SUOMI NPP               
1 37849U 11061A   26015.17448232  .00000043  00000+0  41256-4 0  9993
2 37849  98.7811 317.2215 0002453  63.4503 296.6924 14.19525257736738
METEOSAT-10 (MSG-3)     
1 38552U 12035B   26014.94495698  .00000008  00000+0  00000+0 0  9997
2 38552   4.3062  61.6338 0001856 283.6705 109.3234  1.00270991 49327
METOP-B                 
1 38771U 12049A   26015.15887683  .00000076  00000+0  54901-4 0  9997
2 38771  98.6750  69.5434 0003277  76.6011 283.5531 14.21422367691526
INSAT-3D                
1 39216U 13038B   26015.02197525 -.00000322  00000+0  00000+0 0  9997
2 39216   1.5305  84.6000 0001700 166.6317   0.6677  1.00269962 45542
FENGYUN 3C              
1 39260U 13052A   26015.17461154  .00000063  00000+0  52910-4 0  9993
2 39260  98.4803 356.2282 0015799 102.7902 257.5039 14.15707999636912
METEOR-M 2              
1 40069U 14037A   26015.18522602  .00000309  00000+0  16054-3 0  9994
2 40069  98.4937 356.4947 0006716 115.2052 244.9822 14.21402989597580
HIMAWARI-8              
1 40267U 14060A   26015.01642039 -.00000257  00000+0  00000+0 0  9992
2 40267   0.0058 143.9344 0000903 162.6679 314.4164  1.00271555 41229
FENGYUN 2G              
1 40367U 14090A   26015.03605631 -.00000289  00000+0  00000+0 0  9990
2 40367   5.2513  74.6952 0001496 186.4129 326.0266  1.00273520 40461
METEOSAT-11 (MSG-4)     
1 40732U 15034A   26015.08944327  .00000080  00000+0  00000+0 0  9996
2 40732   2.8194  71.8949 0000428 155.9765 288.2871  1.00277930  5686
ELEKTRO-L 2             
1 41105U 15074A   26015.16366527 -.00000105  00000+0  00000+0 0  9993
2 41105   6.3093  72.4262 0003619 219.8347 226.7614  1.00271371 36975
INSAT-3DR               
1 41752U 16054A   26015.10218336 -.00000058  00000+0  00000+0 0  9995
2 41752   0.0905  87.7970 0013914 187.2505 310.2946  1.00271818 34289
HIMAWARI-9              
1 41836U 16064A   26015.01642039 -.00000256  00000+0  00000+0 0  9990
2 41836   0.0482 235.3783 0000627 111.1193 274.6231  1.00270560 33676
GOES 16                 
1 41866U 16071A   26015.11297362 -.00000072  00000+0  00000+0 0  9993
2 41866   0.1052  97.5433 0002860 183.5901 129.3987  1.00271896 33569
FENGYUN 4A              
1 41882U 16077A   26015.02197527 -.00000340  00000+0  00000+0 0  9997
2 41882   1.9334  82.0622 0005053 133.4842  30.6453  1.00270294 33397
CYGFM05                 
1 41884U 16078A   26014.81558370  .00012250  00000+0  21911-3 0  9993
2 41884  34.9564 190.8373 0007713 129.1036 231.0373 15.49089421504897
CYGFM04                 
1 41885U 16078B   26014.77679235  .00014973  00000+0  24105-3 0  9995
2 41885  34.9322 164.8782 0006818 159.4083 200.6916 15.52021613505077
CYGFM02                 
1 41886U 16078C   26014.74382390  .00015977  00000+0  24339-3 0  9990
2 41886  34.9409 162.9746 0008346 159.3090 200.7972 15.53524610505202
CYGFM01                 
1 41887U 16078D   26014.79478881  .00012630  00000+0  22096-3 0  9998
2 41887  34.9397 193.0819 0007372 118.9162 241.2299 15.49713724504835
CYGFM08                 
1 41888U 16078E   26014.82372398  .00014350  00000+0  23938-3 0  9996
2 41888  34.9428 175.4811 0008882 147.8860 212.2404 15.51019631505072
CYGFM07                 
1 41890U 16078G   26014.81308387  .00014782  00000+0  24124-3 0  9992
2 41890  34.9451 164.3402 0007244 166.6716 193.4199 15.51641077505092
CYGFM03                 
1 41891U 16078H   26014.78056374  .00014558  00000+0  23862-3 0  9994
2 41891  34.9405 166.4947 0006682 150.1557 209.9547 15.51526594505068
FENGYUN 3D              
1 43010U 17072A   26015.21499343  .00000031  00000+0  36298-4 0  9999
2 43010  98.9933 347.0344 0002357 107.2550 252.8884 14.19695486423282
NOAA 20 (JPSS-1)        
1 43013U 17073A   26015.11855497  .00000026  00000+0  33142-4 0  9997
2 43013  98.7635 316.0566 0001496  39.2790 320.8494 14.19535951422751
GOES 17                 
1 43226U 18022A   26015.11889039 -.00000164  00000+0  00000+0 0  9993
2 43226   0.5433  88.5968 0002855 203.2920 135.9765  1.00271475 28885
FENGYUN 2H              
1 43491U 18050A   26015.10322337 -.00000111  00000+0  00000+0 0  9992
2 43491   2.6365  80.9638 0002226 176.4360 333.4659  1.00268924 27901
METOP-C                 
1 43689U 18087A   26015.18579420  .00000072  00000+0  52830-4 0  9994
2 43689  98.6879  77.4344 0000553 183.5432 176.5742 14.21498340373097
GEO-KOMPSAT-2A          
1 43823U 18100A   26014.97037093 -.00000325  00000+0  00000+0 0  9990
2 43823   0.0296 156.7004 0000743 255.8217 179.4906  1.00271806 26094
METEOR-M2 2             
1 44387U 19038A   26015.17557957  .00000064  00000+0  47460-4 0  9991
2 44387  98.9005   0.3204 0002315  90.9902 269.1541 14.24307744339513
ARKTIKA-M 1             
1 47719U 21016A   26012.97641839 -.00000177  00000+0  00000+0 0  9990
2 47719  63.1848  79.6974 7219918 269.2481  15.4078  2.00632572 35674
FENGYUN 3E              
1 49008U 21062A   26015.14663852  .00000042  00000+0  40295-4 0  9990
2 49008  98.7488  20.2737 0002068 136.8981 223.2358 14.19884808234869
GOES 18                 
1 51850U 22021A   26015.10085151  .00000116  00000+0  00000+0 0  9997
2 51850   0.0181 217.0450 0000800 145.6351  11.1632  1.00272132  5055
NOAA 21 (JPSS-2)        
1 54234U 22150A   26015.08319620  .00000032  00000+0  35811-4 0  9997
2 54234  98.7498 315.9819 0000636 290.8225  69.2883 14.19534714164820
METEOSAT-12 (MTG-I1)    
1 54743U 22170C   26015.08753660  .00000012  00000+0  00000+0 0  9995
2 54743   0.7266  29.2295 0001458 260.3389 216.2420  1.00275121 11440
TIANMU-1 03             
1 55973U 23039A   26015.18767272  .00009175  00000+0  21688-3 0  9999
2 55973  97.5113 183.8036 0002575 303.7605  56.3396 15.42061225157215
TIANMU-1 04             
1 55974U 23039B   26015.22448735  .00009696  00000+0  22633-3 0  9994
2 55974  97.5046 183.0193 0003226 295.3546  64.7366 15.42420903157224
TIANMU-1 05             
1 55975U 23039C   26015.22723902  .00009373  00000+0  22185-3 0  9991
2 55975  97.5093 183.5155 0002690 331.3997  28.7102 15.42014826157204
TIANMU-1 06             
1 55976U 23039D   26015.16070282  .00009582  00000+0  22337-3 0  9992
2 55976  97.5103 183.9400 0002937 322.8630  37.2414 15.42466236157215
FENGYUN 3G              
1 56232U 23055A   26015.17772624  .00018907  00000+0  29824-3 0  9995
2 56232  49.9942  55.0157 0004230  27.8148 332.3045 15.53505157156222
METEOR-M2 3             
1 57166U 23091A   26015.20701802 -.00000004  00000+0  17111-4 0  9993
2 57166  98.6327  73.1539 0002947 248.4122 111.6744 14.24030545132744
TIANMU-1 07             
1 57399U 23101A   26015.18271319  .00004002  00000+0  14642-3 0  9991
2 57399  97.2835  69.2988 0003026 341.3491  18.7638 15.28620038138265
TIANMU-1 08             
1 57400U 23101B   26015.15069429  .00003720  00000+0  13670-3 0  9994
2 57400  97.2824  69.0580 0004770 334.3242  25.7760 15.28515031138254
TIANMU-1 09             
1 57401U 23101C   26015.20148843  .00004178  00000+0  15260-3 0  9994
2 57401  97.2781  68.6052 0004221 339.3674  20.7395 15.28646609138267
TIANMU-1 10             
1 57402U 23101D   26015.17039623  .00004175  00000+0  15248-3 0  9999
2 57402  97.2862  69.4601 0005905 334.9596  25.1356 15.28638888138256
FENGYUN 3F              
1 57490U 23111A   26015.20383653  .00000031  00000+0  35325-4 0  9992
2 57490  98.7037  87.9498 0001256 115.3321 244.7985 14.19903437127152
ARKTIKA-M 2             
1 58584U 23198A   26012.73459105  .00000183  00000+0  00000+0 0  9998
2 58584  63.2247 171.5166 6868296 267.9781  18.8360  2.00601360 15200
TIANMU-1 11             
1 58645U 23205A   26015.21493156  .00003463  00000+0  14123-3 0  9994
2 58645  97.3587  39.2562 0009249 173.8781 186.2572 15.25063912114196
TIANMU-1 12             
1 58646U 23205B   26015.17868135  .00003376  00000+0  13823-3 0  9992
2 58646  97.3574  39.0151 0008056 155.6235 204.5385 15.24960490114172
TIANMU-1 13             
1 58647U 23205C   26015.14565275  .00003613  00000+0  14749-3 0  9991
2 58647  97.3603  39.1981 0008817 139.5118 220.6777 15.25004868114166
TIANMU-1 14             
1 58648U 23205D   26015.19506521  .00003653  00000+0  14915-3 0  9995
2 58648  97.3534  38.5644 0009498 144.0391 216.1488 15.24985589114176
TIANMU-1 19             
1 58660U 23208A   26015.20401367  .00005406  00000+0  19722-3 0  9995
2 58660  97.4381 131.1913 0006138 131.0958 229.0812 15.28560981113939
TIANMU-1 20             
1 58661U 23208B   26015.16450851  .00005230  00000+0  18401-3 0  9991
2 58661  97.4319 131.6322 0008214 141.6194 218.5632 15.29751702114002
TIANMU-1 21             
1 58662U 23208C   26015.17288255  .00006501  00000+0  21024-3 0  9997
2 58662  97.4367 133.7022 0007727 136.7509 223.4340 15.32389127114114
TIANMU-1 22             
1 58663U 23208D   26015.14424605  .00004980  00000+0  18356-3 0  9999
2 58663  97.4376 131.1743 0004468 148.9622 211.1882 15.28263149113931
TIANMU-1 15             
1 58700U 24004A   26015.19206875  .00004013  00000+0  16401-3 0  9994
2 58700  97.4631 201.5451 0007492 158.2077 201.9480 15.24927978112442
TIANMU-1 16             
1 58701U 24004B   26015.17660877  .00003923  00000+0  16029-3 0  9994
2 58701  97.4570 200.8925 0005846 158.4456 201.7029 15.24955895112443
TIANMU-1 17             
1 58702U 24004C   26015.16027317  .00003677  00000+0  15028-3 0  9994
2 58702  97.4605 201.3034 0005009 157.9451 202.2003 15.24996423112439
TIANMU-1 18             
1 58703U 24004D   26015.20964259  .00003722  00000+0  15222-3 0  9992
2 58703  97.4624 201.5548 0004469 154.2974 205.8487 15.24969702112448
INSAT-3DS               
1 58990U 24033A   26014.67587155 -.00000137  00000+0  00000+0 0  9990
2 58990   0.0836 264.8466 0001591  65.3107 109.3750  1.00272116 45536
METEOR-M2 4             
1 59051U 24039A   26015.18854106 -.00000002  00000+0  18802-4 0  9990
2 59051  98.6812 336.5811 0005992 250.4853 109.5678 14.22407234 97512
GOES 19                 
1 60133U 24119A   26015.14404360 -.00000229  00000+0  00000+0 0  9998
2 60133   0.0180 217.5673 0001084 130.4654 103.2224  1.00271572  5432
FENGYUN 3H              
1 65815U 25219A   26015.13005104  .00000012  00000+0  25814-4 0  9998
2 65815  98.6622 319.0022 0001333 104.8302 255.3023 14.19915118 15663
